start=new Date('2023-03-28T00:00:00.000Z').valueOf();
sats=[{"SITE":"AFETR","RA_OF_ASC_NODE":"339.8639","SEMIMAJOR_AXIS":"6925.418","CENTER_NAME":"EARTH","INCLINATION":"53.0552","RCS_SIZE":"LARGE","ECCENTRICITY":"0.00010120","ELEMENT_SET_NO":"999","COUNTRY_CODE":"US","MEAN_ANOMALY":"270.9483","ARG_OF_PERICENTER":"89.1622","MEAN_MOTION_DOT":"0.00026973","MEAN_MOTION":"15.06377418","LAUNCH_DATE":"2021-05-09","FILE":"3872915","TIME_SYSTEM":"UTC","NORAD_CAT_ID":"48443","REV_AT_EPOCH":"10418","PERIAPSIS":"546.582","EPOCH":"2023-03-27T22:20:59.172288","CLASSIFICATION_TYPE":"U","MEAN_MOTION_DDOT":"0.0000000000000","TLE_LINE2":"2 48443  53.0552 339.8639 0001012  89.1622 270.9483 15.06377418104187","DECAY_DATE":null,"OBJECT_NAME":"STARLINK-2663","GP_ID":"228990757","EPHEMERIS_TYPE":"0","MEAN_ELEMENT_THEORY":"SGP4","PERIOD":"95.594","APOAPSIS":"547.984","TLE_LINE1":"1 48443U 21040R   23086.93124042  .00026973  00000-0  18239-2 0  9996","REF_FRAME":"TEME","OBJECT_TYPE":"PAYLOAD","BSTAR":"0.00182390000000","OBJECT_ID":"2021-040R"},{"RA_OF_ASC_NODE":"339.8777","SITE":"AFETR","SEMIMAJOR_AXIS":"6925.521","INCLINATION":"53.0553","RCS_SIZE":"LARGE","CENTER_NAME":"EARTH","ELEMENT_SET_NO":"999","ECCENTRICITY":"0.00006320","MEAN_ANOMALY":"296.1600","COUNTRY_CODE":"US","ARG_OF_PERICENTER":"63.9453","MEAN_MOTION_DOT":"0.00012076","LAUNCH_DATE":"2021-05-09","MEAN_MOTION":"15.06343758","FILE":"3872915","TIME_SYSTEM":"UTC","NORAD_CAT_ID":"48444","REV_AT_EPOCH":"10418","EPOCH":"2023-03-27T22:15:37.994112","PERIAPSIS":"546.948","CLASSIFICATION_TYPE":"U","MEAN_MOTION_DDOT":"0.0000000000000","TLE_LINE2":"2 48444  53.0553 339.8777 0000632  63.9453 296.1600 15.06343758104182","DECAY_DATE":null,"EPHEMERIS_TYPE":"0","GP_ID":"228991007","OBJECT_NAME":"STARLINK-2645","MEAN_ELEMENT_THEORY":"SGP4","APOAPSIS":"547.824","PERIOD":"95.596","TLE_LINE1":"1 48444U 21040S   23086.92752308  .00012076  00000-0  82943-3 0  9991","BSTAR":"0.00082943000000","OBJECT_TYPE":"PAYLOAD","OBJECT_ID":"2021-040S","REF_FRAME":"TEME"},{"DECAY_DATE":null,"TLE_LINE2":"2 48445  53.0558 339.8978 0000862 104.3802 255.7283 15.06390750104186","MEAN_ELEMENT_THEORY":"SGP4","GP_ID":"228992258","OBJECT_NAME":"STARLINK-2634","EPHEMERIS_TYPE":"0","PERIOD":"95.593","APOAPSIS":"547.839","REF_FRAME":"TEME","BSTAR":"0.00206660000000","OBJECT_TYPE":"PAYLOAD","OBJECT_ID":"2021-040T","TLE_LINE1":"1 48445U 21040T   23086.92388745  .00030627  00000-0  20666-2 0  9997","CENTER_NAME":"EARTH","INCLINATION":"53.0558","RCS_SIZE":"LARGE","SEMIMAJOR_AXIS":"6925.377","SITE":"AFETR","RA_OF_ASC_NODE":"339.8978","MEAN_MOTION_DOT":"0.00030627","ARG_OF_PERICENTER":"104.3802","COUNTRY_CODE":"US","MEAN_ANOMALY":"255.7283","ECCENTRICITY":"0.00008620","ELEMENT_SET_NO":"999","TIME_SYSTEM":"UTC","NORAD_CAT_ID":"48445","FILE":"3872915","MEAN_MOTION":"15.06390750","LAUNCH_DATE":"2021-05-09","MEAN_MOTION_DDOT":"0.0000000000000","CLASSIFICATION_TYPE":"U","EPOCH":"2023-03-27T22:10:23.875680","PERIAPSIS":"546.645","REV_AT_EPOCH":"10418"},{"PERIOD":"95.593","APOAPSIS":"547.956","REF_FRAME":"TEME","OBJECT_TYPE":"PAYLOAD","BSTAR":"0.00160040000000","OBJECT_ID":"2021-040U","TLE_LINE1":"1 48446U 21040U   23086.92019113  .00023626  00000-0  16004-2 0  9990","TLE_LINE2":"2 48446  53.0548 339.9123 0001000  69.3354 290.7742 15.06383613104185","DECAY_DATE":null,"MEAN_ELEMENT_THEORY":"SGP4","GP_ID":"228992009","OBJECT_NAME":"STARLINK-2247","EPHEMERIS_TYPE":"0","FILE":"3872915","NORAD_CAT_ID":"48446","TIME_SYSTEM":"UTC","MEAN_MOTION":"15.06383613","LAUNCH_DATE":"2021-05-09","CLASSIFICATION_TYPE":"U","MEAN_MOTION_DDOT":"0.0000000000000","REV_AT_EPOCH":"10418","EPOCH":"2023-03-27T22:05:04.513632","PERIAPSIS":"546.571","CENTER_NAME":"EARTH","INCLINATION":"53.0548","RCS_SIZE":"LARGE","SITE":"AFETR","RA_OF_ASC_NODE":"339.9123","SEMIMAJOR_AXIS":"6925.399","ARG_OF_PERICENTER":"69.3354","MEAN_MOTION_DOT":"0.00023626","ECCENTRICITY":"0.00010000","ELEMENT_SET_NO":"999","COUNTRY_CODE":"US","MEAN_ANOMALY":"290.7742"},{"DECAY_DATE":null,"TLE_LINE2":"2 48447  53.0536 339.9279 0001487  35.8993 324.2095 15.06380311104187","OBJECT_NAME":"STARLINK-2269","GP_ID":"228991257","EPHEMERIS_TYPE":"0","MEAN_ELEMENT_THEORY":"SGP4","APOAPSIS":"548.304","PERIOD":"95.593","TLE_LINE1":"1 48447U 21040V   23086.91651500  .00024242  00000-0  16416-2 0  9994","REF_FRAME":"TEME","OBJECT_TYPE":"PAYLOAD","OBJECT_ID":"2021-040V","BSTAR":"0.00164160000000","SEMIMAJOR_AXIS":"6925.409","SITE":"AFETR","RA_OF_ASC_NODE":"339.9279","CENTER_NAME":"EARTH","RCS_SIZE":"LARGE","INCLINATION":"53.0536","COUNTRY_CODE":"US","MEAN_ANOMALY":"324.2095","ECCENTRICITY":"0.00014870","ELEMENT_SET_NO":"999","MEAN_MOTION_DOT":"0.00024242","ARG_OF_PERICENTER":"35.8993","MEAN_MOTION":"15.06380311","LAUNCH_DATE":"2021-05-09","TIME_SYSTEM":"UTC","NORAD_CAT_ID":"48447","FILE":"3872915","PERIAPSIS":"546.244","EPOCH":"2023-03-27T21:59:46.896000","REV_AT_EPOCH":"10418","MEAN_MOTION_DDOT":"0.0000000000000","CLASSIFICATION_TYPE":"U"},{"MEAN_ELEMENT_THEORY":"SGP4","EPHEMERIS_TYPE":"0","OBJECT_NAME":"STARLINK-2632","GP_ID":"228991507","DECAY_DATE":null,"TLE_LINE2":"2 48448  53.0548 340.1152 0000997  95.0366 265.0737 15.06389428104174","OBJECT_ID":"2021-040W","OBJECT_TYPE":"PAYLOAD","BSTAR":"0.00139900000000","REF_FRAME":"TEME","TLE_LINE1":"1 48448U 21040W   23086.87502863  .00020612  00000-0  13990-2 0  9998","APOAPSIS":"547.936","PERIOD":"95.593","MEAN_MOTION_DOT":"0.00020612","ARG_OF_PERICENTER":"95.0366","MEAN_ANOMALY":"265.0737","COUNTRY_CODE":"US","ELEMENT_SET_NO":"999","ECCENTRICITY":"0.00009970","RCS_SIZE":"LARGE","INCLINATION":"53.0548","CENTER_NAME":"EARTH","SEMIMAJOR_AXIS":"6925.381","RA_OF_ASC_NODE":"340.1152","SITE":"AFETR","MEAN_MOTION_DDOT":"0.0000000000000","CLASSIFICATION_TYPE":"U","EPOCH":"2023-03-27T21:00:02.473632","PERIAPSIS":"546.555","REV_AT_EPOCH":"10417","TIME_SYSTEM":"UTC","NORAD_CAT_ID":"48448","FILE":"3872915","LAUNCH_DATE":"2021-05-09","MEAN_MOTION":"15.06389428"},{"CLASSIFICATION_TYPE":"U","MEAN_MOTION_DDOT":"0.0000000000000","REV_AT_EPOCH":"10418","EPOCH":"2023-03-27T21:54:28.829088","PERIAPSIS":"546.656","FILE":"3872915","NORAD_CAT_ID":"48449","TIME_SYSTEM":"UTC","MEAN_MOTION":"15.06403031","LAUNCH_DATE":"2021-05-09","ARG_OF_PERICENTER":"72.8834","MEAN_MOTION_DOT":"0.00023094","ECCENTRICITY":"0.00007910","ELEMENT_SET_NO":"999","COUNTRY_CODE":"US","MEAN_ANOMALY":"287.2241","CENTER_NAME":"EARTH","RCS_SIZE":"LARGE","INCLINATION":"53.0550","SITE":"AFETR","RA_OF_ASC_NODE":"339.9446","SEMIMAJOR_AXIS":"6925.339","REF_FRAME":"TEME","OBJECT_ID":"2021-040X","OBJECT_TYPE":"PAYLOAD","BSTAR":"0.00156410000000","TLE_LINE1":"1 48449U 21040X   23086.91283367  .00023094  00000-0  15641-2 0  9991","PERIOD":"95.592","APOAPSIS":"547.752","MEAN_ELEMENT_THEORY":"SGP4","GP_ID":"228991759","OBJECT_NAME":"STARLINK-2655","EPHEMERIS_TYPE":"0","TLE_LINE2":"2 48449  53.0550 339.9446 0000791  72.8834 287.2241 15.06403031104189","DECAY_DATE":null},{"TLE_LINE2":"2 48450  53.0542 339.9636 0001086 103.6380 256.4730 15.06401050104180","DECAY_DATE":null,"MEAN_ELEMENT_THEORY":"SGP4","GP_ID":"228992509","OBJECT_NAME":"STARLINK-2660","EPHEMERIS_TYPE":"0","APOAPSIS":"547.962","PERIOD":"95.592","REF_FRAME":"TEME","OBJECT_TYPE":"PAYLOAD","OBJECT_ID":"2021-040Y","BSTAR":"0.00155230000000","TLE_LINE1":"1 48450U 21040Y   23086.90914537  .00022916  00000-0  15523-2 0  9993","CENTER_NAME":"EARTH","RCS_SIZE":"LARGE","INCLINATION":"53.0542","SITE":"AFETR","RA_OF_ASC_NODE":"339.9636","SEMIMAJOR_AXIS":"6925.345","ARG_OF_PERICENTER":"103.6380","MEAN_MOTION_DOT":"0.00022916","ECCENTRICITY":"0.00010860","ELEMENT_SET_NO":"999","COUNTRY_CODE":"US","MEAN_ANOMALY":"256.4730","FILE":"3872915","NORAD_CAT_ID":"48450","TIME_SYSTEM":"UTC","MEAN_MOTION":"15.06401050","LAUNCH_DATE":"2021-05-09","CLASSIFICATION_TYPE":"U","MEAN_MOTION_DDOT":"0.0000000000000","REV_AT_EPOCH":"10418","EPOCH":"2023-03-27T21:49:10.159968","PERIAPSIS":"546.458"},{"RCS_SIZE":"LARGE","INCLINATION":"53.0527","CENTER_NAME":"EARTH","SEMIMAJOR_AXIS":"6925.276","RA_OF_ASC_NODE":"339.9940","SITE":"AFETR","MEAN_MOTION_DOT":"0.00058695","ARG_OF_PERICENTER":"53.1738","MEAN_ANOMALY":"306.9323","COUNTRY_CODE":"US","ELEMENT_SET_NO":"999","ECCENTRICITY":"0.00007830","NORAD_CAT_ID":"48451","TIME_SYSTEM":"UTC","FILE":"3872915","LAUNCH_DATE":"2021-05-09","MEAN_MOTION":"15.06423662","MEAN_MOTION_DDOT":"0.0000000000000","CLASSIFICATION_TYPE":"U","EPOCH":"2023-03-27T21:47:50.849088","PERIAPSIS":"546.599","REV_AT_EPOCH":"10418","DECAY_DATE":null,"TLE_LINE2":"2 48451  53.0527 339.9940 0000783  53.1738 306.9323 15.06423662104183","MEAN_ELEMENT_THEORY":"SGP4","EPHEMERIS_TYPE":"0","OBJECT_NAME":"STARLINK-2652","GP_ID":"228990758","PERIOD":"95.591","APOAPSIS":"547.683","OBJECT_TYPE":"PAYLOAD","OBJECT_ID":"2021-040Z","BSTAR":"0.00392420000000","REF_FRAME":"TEME","TLE_LINE1":"1 48451U 21040Z   23086.90822742  .00058695  00000-0  39242-2 0  9997"},{"OBJECT_TYPE":"PAYLOAD","OBJECT_ID":"2021-040AA","BSTAR":"0.00186930000000","REF_FRAME":"TEME","TLE_LINE1":"1 48452U 21040AA  23086.90544293  .00027667  00000-0  18693-2 0  9992","APOAPSIS":"547.921","PERIOD":"95.592","MEAN_ELEMENT_THEORY":"SGP4","EPHEMERIS_TYPE":"0","OBJECT_NAME":"STARLINK-2703","GP_ID":"228991008","DECAY_DATE":null,"TLE_LINE2":"2 48452  53.0535 339.9482 0000997 116.1207 243.9885 15.06394392104182","MEAN_MOTION_DDOT":"0.0000000000000","CLASSIFICATION_TYPE":"U","PERIAPSIS":"546.540","EPOCH":"2023-03-27T21:43:50.269152","REV_AT_EPOCH":"10418","NORAD_CAT_ID":"48452","TIME_SYSTEM":"UTC","FILE":"3872915","LAUNCH_DATE":"2021-05-09","MEAN_MOTION":"15.06394392","MEAN_MOTION_DOT":"0.00027667","ARG_OF_PERICENTER":"116.1207","MEAN_ANOMALY":"243.9885","COUNTRY_CODE":"US","ELEMENT_SET_NO":"999","ECCENTRICITY":"0.00009970","RCS_SIZE":"LARGE","INCLINATION":"53.0535","CENTER_NAME":"EARTH","SEMIMAJOR_AXIS":"6925.366","RA_OF_ASC_NODE":"339.9482","SITE":"AFETR"}];
